[{"OBJECT_NAME":"STARLINK-32287","OBJECT_ID":"2024-138D","EPOCH":"2026-03-09T21:18:41.226624","MEAN_MOTION":15.30196787,"ECCENTRICITY":9.391e-5,"INCLINATION":53.1605,"RA_OF_ASC_NODE":308.9931,"ARG_OF_PERICENTER":89.9145,"MEAN_ANOMALY":270.1963,"EPHEMERIS_TYPE":0,"CLASSIFICATION_TYPE":"U","NORAD_CAT_ID":60358,"ELEMENT_SET_NO":999,"REV_AT_EPOCH":9065,"BSTAR":0.00022593898,"MEAN_MOTION_DOT":6.338e-5,"MEAN_MOTION_DDOT":0},{"OBJECT_NAME":"EDISON-1","OBJECT_ID":"2025-009B","EPOCH":"2026-03-09T19:16:13.822464","MEAN_MOTION":15.29042904,"ECCENTRICITY":0.00043285,"INCLINATION":97.4042,"RA_OF_ASC_NODE":151.6286,"ARG_OF_PERICENTER":306.4185,"MEAN_ANOMALY":53.6655,"EPHEMERIS_TYPE":0,"CLASSIFICATION_TYPE":"U","NORAD_CAT_ID":62610,"ELEMENT_SET_NO":999,"REV_AT_EPOCH":6375,"BSTAR":0.00052814963,"MEAN_MOTION_DOT":0.00014835,"MEAN_MOTION_DDOT":0}]
